MOLNIYA 2-9             
1 07276U 74026A   23080.84232186  .00000134  00000+0  00000+0 0  9994
2 07276  64.2785 189.3110 6389434 277.5490  18.9632  2.45097132256184
MOLNIYA 2-10            
1 07376U 74056A   23080.33742180 -.00000897  00000+0  00000+0 0  9999
2 07376  64.5308  65.7047 6788796 284.3191  13.8540  2.01091884355927
MOLNIYA 1-S             
1 07392U 74060A   23080.76662546  .00000123  00000+0  00000+0 0  9997
2 07392   4.4155 278.6312 0010058 214.3316   3.6606  1.00284109122309
MOLNIYA 1-29            
1 07780U 75036A   23080.34139169  .00000231  00000+0  20075-1 0  9992
2 07780  63.4112 185.4352 6780219 287.3549  13.0231  2.00579471351172
MOLNIYA 2-14            
1 08195U 75081A   23081.28535325  .00000112  00000+0  00000+0 0  9993
2 08195  63.4005 158.8343 6717531 291.6485  12.2946  2.02106019348550
MOLNIYA 1-32            
1 08601U 76006A   23081.48613716 -.00000777  00000+0  00000+0 0  9994
2 08601  63.5421 260.4757 7113752 283.9071  11.7412  1.99962885344560
MOLNIYA 1-36            
1 09880U 77021A   23080.38505625 -.00001210  00000+0  00000+0 0  9992
2 09880  63.4510 233.5008 7025392 289.4365  10.9070  2.00432645234925
MOLNIYA 3-8             
1 10455U 77105A   23079.69101543 -.00000116  00000+0  60432-3 0  9991
2 10455  63.4493 316.4737 7306907 282.6958  11.0478  2.00414350332681
MOLNIYA 1-40            
1 10925U 78055A   23080.31221001 -.00000617  00000+0  00000+0 0  9998
2 10925  63.6174   8.5470 7268793 280.6974  11.8709  2.00556043328237
MOLNIYA 3-10            
1 11057U 78095A   23080.51018142  .00000130  00000+0  80919-3 0  9991
2 11057  63.2602 297.8595 5768456 312.4040  11.4337  4.09882726395085
MOLNIYA 3-13            
1 11896U 80063A   23079.09407857 -.00000053  00000+0  00000+0 0  9990
2 11896  62.8099 101.1705 7186441 276.8606  13.3137  2.00581534312622
MOLNIYA 1-49            
1 12156U 81009A   23081.25887388  .00000642  00000+0  11148-2 0  9994
2 12156  61.6917 121.5917 7374889 266.9672  14.9493  2.05718523227236
MOLNIYA 1-52            
1 13012U 81123A   23080.03427157  .00001190  00000+0  26239-1 0  9997
2 13012  61.6457 239.1887 7178922 258.6874  19.8987  2.00811650302125
MOLNIYA 1-53            
1 13070U 82015A   23080.84752767  .00000709  00000+0  32867-3 0  9990
2 13070  62.5293 180.8569 6951920 283.1815  13.1143  2.00349761300814
MOLNIYA 3-20            
1 13875U 83015A   23079.61312370 -.00001226  00000+0  87969-3 0  9998
2 13875  62.4725 308.9735 7367182 260.8434  17.1818  2.00789484229256
MOLNIYA 1-56            
1 13890U 83019A   23080.76110279  .00000860  00000+0  89413-3 0  9999
2 13890  62.8003 333.2256 7438081 266.6160  14.5443  1.99913234292155
MOLNIYA 1-63            
1 15429U 84124A   23081.08596884 -.00001066  00000+0  00000+0 0  9994
2 15429  63.6701 140.4451 6760312 257.7417  18.8511  2.00571814280375
MOLNIYA 3-24            
1 15738U 85040A   23078.95073585  .00000067  00000+0  15903-2 0  9995
2 15738  63.5234  30.3149 6883047 247.2955  29.8784  2.55631193310916
MOLNIYA 3-27            
1 16393U 85117A   23081.00795058 -.00000059  00000+0  00000+0 0  9995
2 16393  64.2201  44.1538 7081377 246.7350  27.8186  2.12398395280097
MOLNIYA 1-69            
1 17078U 86089A   23076.38748370  .00001280  00000+0  00000+0 0  9991
2 17078  64.0423 160.1920 6739939 255.7989  26.0119  2.00905283266309
MOLNIYA 3-31            
1 17328U 87008A   23079.06160660 -.00000332  00000+0  00000+0 0  9997
2 17328  63.6169  94.3655 7183327 253.0751  22.7561  2.00629798261397
MOLNIYA 1-71            
1 18946U 88017A   23080.06959916  .00000360  00000+0  00000+0 0  9997
2 18946  63.3231  85.9983 7291881 256.3958  19.9538  2.00602211256602
MOLNIYA 1-75            
1 19807U 89014A   23078.83736836 -.00000682  00000+0  00000+0 0  9996
2 19807  63.9170 255.0657 6752081 265.5150  20.8253  2.00476731249528
MOLNIYA 1-80            
1 21118U 91012A   23079.89135116  .00000840  00000+0  00000+0 0  9991
2 21118  65.1750 303.3438 6707324 274.0174  17.8063  2.05230611236654
MOLNIYA 3-40            
1 21196U 91022A   23079.68097881 -.00000206  00000+0  00000+0 0  9998
2 21196  65.0433 297.1217 6733600 270.9412  18.7511  2.03022957235295
MOLNIYA 1-81            
1 21426U 91043A   23080.67297383 -.00000117  00000+0  00000+0 0  9998
2 21426  63.9294 309.1793 7043628 265.5115  18.2476  2.00598728232700
MOLNIYA 3-41            
1 21706U 91065A   23080.37399093  .00001215  00000+0  00000+0 0  9990
2 21706  64.0669 134.8521 6976020 253.4132  24.8090  2.04343331232523
MOLNIYA 3-42            
1 22178U 92067A   23081.42781151  .00000158  00000+0  00000+0 0  9999
2 22178  64.6740 186.8926 6427714 262.4226  25.5404  2.20434830230645
MOLNIYA 1-86            
1 22671U 93035A   23081.27470216  .00000795  00000+0  11502-2 0  9992
2 22671  63.1157  75.2269 4852235  11.5660 356.4705  5.62837344367886
MOLNIYA 1-87            
1 22949U 93079A   23080.08978421  .00000878  00000+0  00000+0 0  9997
2 22949  64.3258  60.1341 6934264 282.5088  13.4452  2.02870365 80547
MOLNIYA 1-88            
1 23420U 94081A   23080.02963488  .00000086  00000+0  00000+0 0  9998
2 23420  64.2860 134.8541 5806591 277.8618  23.5331  3.34498724122958
MOLNIYA 3-47            
1 23642U 95042A   23074.12818704  .00001131  00000+0  00000+0 0  9998
2 23642  64.4559  42.2772 6966647 282.8006  13.1715  2.01934817202485
MOLNIYA 1-90            
1 24960U 97054A   23081.10683488  .00000083  00000+0  27901-2 0  9999
2 24960  63.7677 100.0363 6098205 296.5694  14.3886  3.18690469216930
MOLNIYA 1-91            
1 25485U 98054A   23080.02173418  .00000120  00000+0  22925-2 0  9993
2 25485  63.2031 107.1836 6779976 291.8085  23.1086  2.36445695184929
MOLNIYA 3-50            
1 25847U 99036A   23079.62381215 -.00000251  00000+0  62909-3 0  9999
2 25847  63.3230 293.0232 7285441 282.7342  11.0758  2.00603501173656
